CCSDS_OMM_VERS = 2.0
CREATION_DATE  = 
ORIGINATOR     = 

OBJECT_NAME    = STARLINK-33921
OBJECT_ID      = 2025-225AA
CENTER_NAME    = EARTH
REF_FRAME      = TEME
TIME_SYSTEM    = UTC
MEAN_ELEMENT_THEORY = SGP/SGP4

EPOCH          = 2025-11-06T16:36:53.250336
MEAN_MOTION    = 15.49347447
ECCENTRICITY   = .00011836
INCLINATION    = 53.1600
RA_OF_ASC_NODE = 18.6213
ARG_OF_PERICENTER = 84.0636
MEAN_ANOMALY   = 276.0508

EPHEMERIS_TYPE = 0
CLASSIFICATION_TYPE = U
NORAD_CAT_ID   = 65934
ELEMENT_SET_NO = 999
REV_AT_EPOCH   = 466
BSTAR          = .12577476E-2
MEAN_MOTION_DOT = .70229E-3
MEAN_MOTION_DDOT = 0

CCSDS_OMM_VERS = 2.0
CREATION_DATE  = 
ORIGINATOR     = 

OBJECT_NAME    = STARLINK-35155
OBJECT_ID      = 2025-225AB
CENTER_NAME    = EARTH
REF_FRAME      = TEME
TIME_SYSTEM    = UTC
MEAN_ELEMENT_THEORY = SGP/SGP4

EPOCH          = 2025-11-06T18:09:17.766432
MEAN_MOTION    = 15.49330678
ECCENTRICITY   = .00026751
INCLINATION    = 53.1601
RA_OF_ASC_NODE = 18.3105
ARG_OF_PERICENTER = 57.2060
MEAN_ANOMALY   = 302.9207

EPHEMERIS_TYPE = 0
CLASSIFICATION_TYPE = U
NORAD_CAT_ID   = 65935
ELEMENT_SET_NO = 999
REV_AT_EPOCH   = 467
BSTAR          = .14253557E-2
MEAN_MOTION_DOT = .79703E-3
MEAN_MOTION_DDOT = 0

CCSDS_OMM_VERS = 2.0
CREATION_DATE  = 
ORIGINATOR     = 

OBJECT_NAME    = STARLINK-35161
OBJECT_ID      = 2025-225AC
CENTER_NAME    = EARTH
REF_FRAME      = TEME
TIME_SYSTEM    = UTC
MEAN_ELEMENT_THEORY = SGP/SGP4

EPOCH          = 2025-11-06T16:35:24.659232
MEAN_MOTION    = 15.49350300
ECCENTRICITY   = .00011616
INCLINATION    = 53.1600
RA_OF_ASC_NODE = 18.6148
ARG_OF_PERICENTER = 88.9886
MEAN_ANOMALY   = 271.1257

EPHEMERIS_TYPE = 0
CLASSIFICATION_TYPE = U
NORAD_CAT_ID   = 65936
ELEMENT_SET_NO = 999
REV_AT_EPOCH   = 466
BSTAR          = .12222551E-2
MEAN_MOTION_DOT = .68224E-3
MEAN_MOTION_DDOT = 0

CCSDS_OMM_VERS = 2.0
CREATION_DATE  = 
ORIGINATOR     = 

OBJECT_NAME    = STARLINK-35473
OBJECT_ID      = 2025-225AD
CENTER_NAME    = EARTH
REF_FRAME      = TEME
TIME_SYSTEM    = UTC
MEAN_ELEMENT_THEORY = SGP/SGP4

EPOCH          = 2025-11-06T19:40:41.902752
MEAN_MOTION    = 15.49331529
ECCENTRICITY   = .00013114
INCLINATION    = 53.1599
RA_OF_ASC_NODE = 17.9964
ARG_OF_PERICENTER = 74.0555
MEAN_ANOMALY   = 286.0599

EPHEMERIS_TYPE = 0
CLASSIFICATION_TYPE = U
NORAD_CAT_ID   = 65937
ELEMENT_SET_NO = 999
REV_AT_EPOCH   = 468
BSTAR          = .14229652E-2
MEAN_MOTION_DOT = .79565E-3
MEAN_MOTION_DDOT = 0

CCSDS_OMM_VERS = 2.0
CREATION_DATE  = 
ORIGINATOR     = 

OBJECT_NAME    = 2025-226A
OBJECT_ID      = 2025-226A
CENTER_NAME    = EARTH
REF_FRAME      = TEME
TIME_SYSTEM    = UTC
MEAN_ELEMENT_THEORY = SGP/SGP4

EPOCH          = 2025-11-07T06:44:32.854848
MEAN_MOTION    = 15.12001352
ECCENTRICITY   = .00151421
INCLINATION    = 97.6665
RA_OF_ASC_NODE = 25.4947
ARG_OF_PERICENTER = 186.7255
MEAN_ANOMALY   = 173.3775

EPHEMERIS_TYPE = 0
CLASSIFICATION_TYPE = U
NORAD_CAT_ID   = 65938
ELEMENT_SET_NO = 999
REV_AT_EPOCH   = 411
BSTAR          = .76290764E-3
MEAN_MOTION_DOT = .13082E-3
MEAN_MOTION_DDOT = 0

CCSDS_OMM_VERS = 2.0
CREATION_DATE  = 
ORIGINATOR     = 

OBJECT_NAME    = 2025-226B
OBJECT_ID      = 2025-226B
CENTER_NAME    = EARTH
REF_FRAME      = TEME
TIME_SYSTEM    = UTC
MEAN_ELEMENT_THEORY = SGP/SGP4

EPOCH          = 2025-11-07T07:30:57.711744
MEAN_MOTION    = 15.09797697
ECCENTRICITY   = .00212425
INCLINATION    = 97.6616
RA_OF_ASC_NODE = 25.4382
ARG_OF_PERICENTER = 190.3383
MEAN_ANOMALY   = 169.7412

EPHEMERIS_TYPE = 0
CLASSIFICATION_TYPE = U
NORAD_CAT_ID   = 65939
ELEMENT_SET_NO = 999
REV_AT_EPOCH   = 410
BSTAR          = .49754573E-3
MEAN_MOTION_DOT = .8019E-4
MEAN_MOTION_DDOT = 0

CCSDS_OMM_VERS = 2.0
CREATION_DATE  = 
ORIGINATOR     = 

OBJECT_NAME    = 2025-226C
OBJECT_ID      = 2025-226C
CENTER_NAME    = EARTH
REF_FRAME      = TEME
TIME_SYSTEM    = UTC
MEAN_ELEMENT_THEORY = SGP/SGP4

EPOCH          = 2025-11-07T06:47:26.581920
MEAN_MOTION    = 15.11889902
ECCENTRICITY   = .00151027
INCLINATION    = 97.6573
RA_OF_ASC_NODE = 25.4618
ARG_OF_PERICENTER = 184.7306
MEAN_ANOMALY   = 175.3784

EPHEMERIS_TYPE = 0
CLASSIFICATION_TYPE = U
NORAD_CAT_ID   = 65940
ELEMENT_SET_NO = 999
REV_AT_EPOCH   = 410
BSTAR          = .10637866E-2
MEAN_MOTION_DOT = .18223E-3
MEAN_MOTION_DDOT = 0

CCSDS_OMM_VERS = 2.0
CREATION_DATE  = 
ORIGINATOR     = 

OBJECT_NAME    = YOTSUBA-KULOVER
OBJECT_ID      = 1998-067XN
CENTER_NAME    = EARTH
REF_FRAME      = TEME
TIME_SYSTEM    = UTC
MEAN_ELEMENT_THEORY = SGP/SGP4

EPOCH          = 2025-11-07T06:37:37.380576
MEAN_MOTION    = 15.53953751
ECCENTRICITY   = .00026673
INCLINATION    = 51.6324
RA_OF_ASC_NODE = 317.4779
ARG_OF_PERICENTER = 18.7643
MEAN_ANOMALY   = 341.3445

EPHEMERIS_TYPE = 0
CLASSIFICATION_TYPE = U
NORAD_CAT_ID   = 65941
ELEMENT_SET_NO = 999
REV_AT_EPOCH   = 433
BSTAR          = .95169922E-3
MEAN_MOTION_DOT = .6262E-3
MEAN_MOTION_DDOT = 0

CCSDS_OMM_VERS = 2.0
CREATION_DATE  = 
ORIGINATOR     = 

OBJECT_NAME    = BOTAN
OBJECT_ID      = 1998-067XP
CENTER_NAME    = EARTH
REF_FRAME      = TEME
TIME_SYSTEM    = UTC
MEAN_ELEMENT_THEORY = SGP/SGP4

EPOCH          = 2025-11-07T06:23:55.790016
MEAN_MOTION    = 15.55038987
ECCENTRICITY   = .0004757
INCLINATION    = 51.6320
RA_OF_ASC_NODE = 317.4148
ARG_OF_PERICENTER = 34.2370
MEAN_ANOMALY   = 325.8927

EPHEMERIS_TYPE = 0
CLASSIFICATION_TYPE = U
NORAD_CAT_ID   = 65942
ELEMENT_SET_NO = 999
REV_AT_EPOCH   = 433
BSTAR          = .12069711E-2
MEAN_MOTION_DOT = .83017E-3
MEAN_MOTION_DDOT = 0

CCSDS_OMM_VERS = 2.0
CREATION_DATE  = 
ORIGINATOR     = 

OBJECT_NAME    = E-KAGAKU-1
OBJECT_ID      = 1998-067XQ
CENTER_NAME    = EARTH
REF_FRAME      = TEME
TIME_SYSTEM    = UTC
MEAN_ELEMENT_THEORY = SGP/SGP4

EPOCH          = 2025-11-07T06:36:59.145984
MEAN_MOTION    = 15.53952943
ECCENTRICITY   = .00045217
INCLINATION    = 51.6332
RA_OF_ASC_NODE = 317.4755
ARG_OF_PERICENTER = 22.2723
MEAN_ANOMALY   = 337.8463

EPHEMERIS_TYPE = 0
CLASSIFICATION_TYPE = U
NORAD_CAT_ID   = 65943
ELEMENT_SET_NO = 999
REV_AT_EPOCH   = 433
BSTAR          = .93570426E-3
MEAN_MOTION_DOT = .61564E-3
MEAN_MOTION_DDOT = 0

CCSDS_OMM_VERS = 2.0
CREATION_DATE  = 
ORIGINATOR     = 

OBJECT_NAME    = 2025-226D
OBJECT_ID      = 2025-226D
CENTER_NAME    = EARTH
REF_FRAME      = TEME
TIME_SYSTEM    = UTC
MEAN_ELEMENT_THEORY = SGP/SGP4

EPOCH          = 2025-11-06T09:00:29.187648
MEAN_MOTION    = 15.48107374
ECCENTRICITY   = .00194852
INCLINATION    = 97.6537
RA_OF_ASC_NODE = 25.1428
ARG_OF_PERICENTER = 276.7437
MEAN_ANOMALY   = 83.1595

EPHEMERIS_TYPE = 0
CLASSIFICATION_TYPE = U
NORAD_CAT_ID   = 65944
ELEMENT_SET_NO = 999
REV_AT_EPOCH   = 399
BSTAR          = .37671012E-1
MEAN_MOTION_DOT = .2250373E-1
MEAN_MOTION_DDOT = 0

CCSDS_OMM_VERS = 2.0
CREATION_DATE  = 
ORIGINATOR     = 

OBJECT_NAME    = SHIYAN-31
OBJECT_ID      = 2025-227A
CENTER_NAME    = EARTH
REF_FRAME      = TEME
TIME_SYSTEM    = UTC
MEAN_ELEMENT_THEORY = SGP/SGP4

EPOCH          = 2025-11-07T06:35:09.623616
MEAN_MOTION    = 15.20477530
ECCENTRICITY   = .00115861
INCLINATION    = 80.0056
RA_OF_ASC_NODE = 69.0391
ARG_OF_PERICENTER = 186.8164
MEAN_ANOMALY   = 173.2908

EPHEMERIS_TYPE = 0
CLASSIFICATION_TYPE = U
NORAD_CAT_ID   = 65945
ELEMENT_SET_NO = 999
REV_AT_EPOCH   = 378
BSTAR          = .65343388E-3
MEAN_MOTION_DOT = .14325E-3
MEAN_MOTION_DDOT = 0

